NORAD_CAT_ID,OBJECT_NAME,OBJECT_TYPE,EPOCH,MEAN_MOTION,ECCENTRICITY,INCLINATION,RA_OF_ASC_NODE,ARG_OF_PERICENTER,MEAN_ANOMALY,BSTAR,MEAN_MOTION_DOT,MEAN_MOTION_DDOT,TLE_LINE0,TLE_LINE1,TLE_LINE2,SEMIMAJOR_AXIS,PERIOD,APOGEE,PERIGEE,DECAYED
52607.0,STARLINK-3947,PAYLOAD,2023-02-22 18:29:48,15.08838374,9.51e-05,53.2152,231.2289,82.1052,278.0048,0.00013762,1.903e-05,0.0,0 STARLINK-3947,1 52607U 22052K   23053.77070321  .00001903  00000-0  13762-3 0  9996,2 52607  53.2152 231.2289 0000951  82.1052 278.0048 15.08838374 43069,6917.885,95.438,540.408,539.092,0.0
52607.0,STARLINK-3947,PAYLOAD,2023-02-23 10:23:40,15.08837563,0.0001056,53.2147,228.2547,80.0922,280.0189,4.9121e-05,4.94e-06,0.0,0 STARLINK-3947,1 52607U 22052K   23054.43310537  .00000494  00000-0  49121-4 0  9999,2 52607  53.2147 228.2547 0001056  80.0922 280.0189 15.08837563 43547,6917.888,95.438,540.483,539.022,0.0
52607.0,STARLINK-3947,PAYLOAD,2023-02-23 18:20:35,15.08842116,8.59e-05,53.2156,226.7682,73.1751,286.9335,5.85e-05,6.44e-06,0.0,0 STARLINK-3947,1 52607U 22052K   23054.76430182  .00000644  00000-0  58500-4 0  9992,2 52607  53.2156 226.7682 0000859  73.1751 286.9335 15.08842116 43215,6917.874,95.437,540.333,539.145,0.0
52607.0,STARLINK-3947,PAYLOAD,2023-02-24 11:49:50,15.08832823,8.77e-05,53.2166,223.4984,80.1933,279.9159,4.9808e-06,-2.08e-06,0.0,0 STARLINK-3947,1 52607U 22052K   23055.49295072 -.00000208  00000-0  49808-5 0  9999,2 52607  53.2166 223.4984 0000877  80.1933 279.9159 15.08832823 43709,6917.902,95.438,540.374,539.161,0.0
52607.0,STARLINK-3947,PAYLOAD,2023-02-24 18:11:23,15.08837303,8.42e-05,53.2167,222.3088,86.9076,273.2012,3.6987e-05,3.01e-06,0.0,0 STARLINK-3947,1 52607U 22052K   23055.75790724  .00000301  00000-0  36987-4 0  9998,2 52607  53.2167 222.3088 0000842  86.9076 273.2012 15.08837303 43362,6917.889,95.438,540.336,539.171,0.0
52607.0,STARLINK-3947,PAYLOAD,2023-02-25 10:05:15,15.08833684,8.75e-05,53.2169,219.3351,79.5504,280.5587,3.4665e-05,2.64e-06,0.0,0 STARLINK-3947,1 52607U 22052K   23056.42031255  .00000264  00000-0  34665-4 0  9999,2 52607  53.2169 219.3351 0000875  79.5504 280.5587 15.08833684 43460,6917.9,95.438,540.37,539.159,0.0
52607.0,STARLINK-3947,PAYLOAD,2023-02-25 18:02:10,15.08838189,0.0001045,53.2171,217.8487,78.3309,281.78,1.7975e-05,-2e-08,0.0,0 STARLINK-3947,1 52607U 22052K   23056.75151149 -.00000002  00000-0  17975-4 0  9996,2 52607  53.2171 217.8487 0001045  78.3309 281.7800 15.08838189 43899,6917.886,95.438,540.474,539.028,0.0
52607.0,STARLINK-3947,PAYLOAD,2023-02-26 11:31:24,15.08844142,9.3e-05,53.2172,214.5772,95.782,264.3278,0.0001714,2.441e-05,0.0,0 STARLINK-3947,1 52607U 22052K   23057.48014477  .00002441  00000-0  17140-3 0  9990,2 52607  53.2172 214.5772 0000930  95.7820 264.3278 15.08844142 44000,6917.868,95.437,540.376,539.089,0.0
52607.0,STARLINK-3947,PAYLOAD,2023-02-26 19:28:19,15.08852549,0.0001014,53.2171,213.0898,95.3224,264.7884,0.0002211,3.234e-05,0.0,0 STARLINK-3947,1 52607U 22052K   23057.81133828  .00003234  00000-0  22110-3 0  9993,2 52607  53.2171 213.0898 0001014  95.3224 264.7884 15.08852549 43679,6917.842,95.437,540.409,539.006,0.0
52607.0,STARLINK-3947,PAYLOAD,2023-02-27 09:46:48,15.08841737,0.0001355,53.2178,210.4141,79.7459,280.3686,0.00014448,2.012e-05,0.0,0 STARLINK-3947,1 52607U 22052K   23058.40750997  .00002012  00000-0  14448-3 0  9999,2 52607  53.2178 210.4141 0001355  79.7459 280.3686 15.08841737 44146,6917.875,95.437,540.677,538.803,0.0
52607.0,STARLINK-3947,PAYLOAD,2023-02-27 16:08:20,15.08856842,0.000155,53.2158,209.2264,76.1415,283.975,0.00021828,3.189e-05,0.0,0 STARLINK-3947,1 52607U 22052K   23058.67246031  .00003189  00000-0  21828-3 0  9993,2 52607  53.2158 209.2264 0001550  76.1415 283.9750 15.08856842 44184,6917.829,95.436,540.766,538.622,0.0
52607.0,STARLINK-3947,PAYLOAD,2023-02-28 03:16:02,15.08848218,0.0001282,53.2173,207.1433,76.0191,284.0944,0.00014921,2.088e-05,0.0,0 STARLINK-3947,1 52607U 22052K   23059.13614264  .00002088  00000-0  14921-3 0  9995,2 52607  53.2173 207.1433 0001282  76.0191 284.0944 15.08848218 44251,6917.855,95.437,540.607,538.833,0.0
52607.0,STARLINK-3947,PAYLOAD,2023-02-28 09:37:35,15.0883027,9.17e-05,53.2163,205.9529,87.991,272.1188,-0.00020924,-3.615e-05,0.0,0 STARLINK-3947,1 52607U 22052K   23059.40110821 -.00003615  00000-0 -20924-3 0  9994,2 52607  53.2163 205.9529 0000917  87.9910 272.1188 15.08830270 44297,6917.91,95.438,540.41,539.141,0.0
52607.0,STARLINK-3947,PAYLOAD,2023-02-28 14:23:45,15.08838731,0.0001543,53.2164,205.061,84.4072,275.7096,-4.5807e-06,-3.61e-06,0.0,0 STARLINK-3947,1 52607U 22052K   23059.59982760 -.00000361  00000-0 -45807-5 0  9997,2 52607  53.2164 205.0610 0001543  84.4072 275.7096 15.08838731 43945,6917.884,95.438,540.817,538.682,0.0
52607.0,STARLINK-3947,PAYLOAD,2023-03-01 15:49:56,15.08830043,0.0001015,53.2155,200.3031,96.2962,263.8146,3.4925e-05,2.68e-06,0.0,0 STARLINK-3947,1 52607U 22052K   23060.65967644  .00000268  00000-0  34925-4 0  9992,2 52607  53.2155 200.3031 0001015  96.2962 263.8146 15.08830043 44485,6917.911,95.438,540.478,539.074,0.0
52607.0,STARLINK-3947,PAYLOAD,2023-03-02 18:51:28,15.08849223,0.000102,53.2153,195.2464,103.8489,256.2616,0.0003258,4.902e-05,0.0,0 STARLINK-3947,1 52607U 22052K   23061.78575125  .00004902  00000-0  32580-3 0  9999,2 52607  53.2153 195.2464 0001020 103.8489 256.2616 15.08849223 44657,6917.852,95.437,540.423,539.012,0.0
52607.0,STARLINK-3947,PAYLOAD,2023-03-03 09:09:57,15.08844261,0.000122,53.2148,192.5707,98.9414,261.1716,0.00027074,4.024e-05,0.0,0 STARLINK-3947,1 52607U 22052K   23062.38191448  .00004024  00000-0  27074-3 0  9995,2 52607  53.2148 192.5707 0001220  98.9414 261.1716 15.08844261 44748,6917.867,95.437,540.576,538.888,0.0
52607.0,STARLINK-3947,PAYLOAD,2023-03-03 18:42:14,15.08871111,0.0001096,53.2161,190.7866,95.5698,264.5419,0.00050277,7.729e-05,0.0,0 STARLINK-3947,1 52607U 22052K   23062.77933726  .00007729  00000-0  50277-3 0  9997,2 52607  53.2161 190.7866 0001096  95.5698 264.5419 15.08871111 44805,6917.785,95.436,540.408,538.892,0.0
52607.0,STARLINK-3947,PAYLOAD,2023-03-04 01:03:48,15.08842506,0.0001823,53.2152,189.5956,86.4786,273.6414,-2.1669e-05,-6.33e-06,0.0,0 STARLINK-3947,1 52607U 22052K   23063.04431047 -.00000633  00000-0 -21669-4 0  9990,2 52607  53.2152 189.5956 0001823  86.4786 273.6414 15.08842506 44842,6917.873,95.437,540.999,538.477,0.0
52607.0,STARLINK-3947,PAYLOAD,2023-03-04 09:00:44,15.08833523,0.0001377,53.2148,188.112,99.8499,260.2649,-0.00031426,-5.285e-05,0.0,0 STARLINK-3947,1 52607U 22052K   23063.37551215 -.00005285  00000-0 -31426-3 0  9995,2 52607  53.2148 188.1120 0001377  99.8499 260.2649 15.08833523 44894,6917.9,95.438,540.718,538.813,0.0
52607.0,STARLINK-3947,PAYLOAD,2023-03-04 18:33:08,15.08743595,0.0001267,53.2145,186.3267,102.7702,257.3432,-0.0013745,-0.00022039,0.0,0 STARLINK-3947,1 52607U 22052K   23063.77301019 -.00022039  00000-0 -13745-2 0  9993,2 52607  53.2145 186.3267 0001267 102.7702 257.3432 15.08743595 44955,6918.175,95.444,540.917,539.164,0.0
52607.0,STARLINK-3947,PAYLOAD,2023-03-04 21:43:59,15.08640302,0.0001233,53.2143,185.7326,120.0278,240.0837,-0.0027516,-0.00043577,0.0,0 STARLINK-3947,1 52607U 22052K   23063.90555462 -.00043577  00000-0 -27516-2 0  9992,2 52607  53.2143 185.7326 0001233 120.0278 240.0837 15.08640302 44596,6918.491,95.45,541.209,539.503,0.0
52607.0,STARLINK-3947,PAYLOAD,2023-03-05 00:54:51,15.08558743,0.0001446,53.2169,185.1398,94.7294,265.3863,-0.0037228,-0.00058603,0.0,0 STARLINK-3947,1 52607U 22052K   23064.03809462 -.00058603  00000-0 -37228-2 0  9996,2 52607  53.2169 185.1398 0001446  94.7294 265.3863 15.08558743 44998,6918.74,95.455,541.606,539.605,0.0
52607.0,STARLINK-3947,PAYLOAD,2023-03-05 19:59:59,15.08285478,0.0002253,53.2165,181.5723,31.6245,328.4882,-0.0055944,-0.00086928,0.0,0 STARLINK-3947,1 52607U 22052K   23064.83332385 -.00086928  00000-0 -55944-2 0  9995,2 52607  53.2165 181.5723 0002253  31.6245 328.4882 15.08285478 45118,6919.576,95.473,543.0,539.882,0.0
52607.0,STARLINK-3947,PAYLOAD,2023-03-05 21:35:23,15.0828067,0.0001496,53.2177,181.2749,124.4238,235.6896,-0.0055587,-0.00086366,0.0,0 STARLINK-3947,1 52607U 22052K   23064.89958169 -.00086366  00000-0 -55587-2 0  9994,2 52607  53.2177 181.2749 0001496 124.4238 235.6896 15.08280670 44748,6919.591,95.473,542.491,540.42,0.0
52607.0,STARLINK-3947,PAYLOAD,2023-03-06 00:46:16,15.08238773,0.0001745,53.2161,180.6782,92.7461,267.3731,-0.0053176,-0.00082583,0.0,0 STARLINK-3947,1 52607U 22052K   23065.03213548 -.00082583  00000-0 -53176-2 0  9995,2 52607  53.2161 180.6782 0001745  92.7461 267.3731 15.08238773 45145,6919.719,95.476,542.791,540.376,0.0
52607.0,STARLINK-3947,PAYLOAD,2023-03-06 11:54:10,15.08307644,0.0001284,53.2168,178.6006,108.6397,251.4735,-0.0024662,-0.00038761,0.0,0 STARLINK-3947,1 52607U 22052K   23065.49596006 -.00038761  00000-0 -24662-2 0  9995,2 52607  53.2168 178.6006 0001284 108.6397 251.4735 15.08307644 45211,6919.508,95.471,542.262,540.485,0.0
52607.0,STARLINK-3947,PAYLOAD,2023-03-06 16:40:23,15.08374383,0.0001323,53.2179,177.7058,118.7502,241.3623,-0.00066961,-0.00010793,0.0,0 STARLINK-3947,1 52607U 22052K   23065.69471871 -.00010793  00000-0 -66961-3 0  9993,2 52607  53.2179 177.7058 0001323 118.7502 241.3623 15.08374383 45245,6919.304,95.467,542.084,540.254,0.0
52607.0,STARLINK-3947,PAYLOAD,2023-03-07 00:37:20,15.08556792,9.62e-05,53.2173,176.2214,101.2505,258.8595,0.0031137,0.00049229,0.0,0 STARLINK-3947,1 52607U 22052K   23066.02593071  .00049229  00000-0  31137-2 0  9998,2 52607  53.2173 176.2214 0000962 101.2505 258.8595 15.08556792 45297,6918.746,95.455,541.277,539.946,0.0
52607.0,STARLINK-3947,PAYLOAD,2023-03-07 06:58:58,15.08576129,4.66e-05,53.2208,175.033,102.3285,257.7759,0.0043253,0.00068722,0.0,0 STARLINK-3947,1 52607U 22052K   23066.29094929  .00068722  00000-0  43253-2 0  9996,2 52607  53.2208 175.0330 0000466 102.3285 257.7759 15.08576129 45339,6918.687,95.454,540.874,540.23,0.0
